ONEWEB-0228             
1 48780U 21045P   24085.18734091 -.00000059  00000+0 -19069-3 0  9994
2 48780  87.8978  61.1684 0001872  80.3921 279.7421 13.15548409138434
